[
    {
        "CCSDS_OMM_VERS": "3.0",
        "COMMENT": "GENERATED VIA SPACE-TRACK.ORG API",
        "CREATION_DATE": "2025-05-02T17:35:09",
        "ORIGINATOR": "18 SPCS",
        "OBJECT_NAME": "GALILEO-FM3",
        "OBJECT_ID": "2012-055A",
        "CENTER_NAME": "EARTH",
        "REF_FRAME": "TEME",
        "TIME_SYSTEM": "UTC",
        "MEAN_ELEMENT_THEORY": "SGP4",
        "EPOCH": "2025-05-02T06:41:00.118176",
        "MEAN_MOTION": "1.70473479",
        "ECCENTRICITY": "0.00059890",
        "INCLINATION": "55.5657",
        "RA_OF_ASC_NODE": "112.8316",
        "ARG_OF_PERICENTER": "286.5062",
        "MEAN_ANOMALY": "73.4107",
        "EPHEMERIS_TYPE": "0",
        "CLASSIFICATION_TYPE": "U",
        "NORAD_CAT_ID": "38857",
        "ELEMENT_SET_NO": "999",
        "REV_AT_EPOCH": "7800",
        "BSTAR": "0.00000000000000",
        "MEAN_MOTION_DOT": "0.00000038",
        "MEAN_MOTION_DDOT": "0.0000000000000",
        "SEMIMAJOR_AXIS": "29600.380",
        "PERIOD": "844.706",
        "APOAPSIS": "23239.973",
        "PERIAPSIS": "23204.518",
        "OBJECT_TYPE": "PAYLOAD",
        "RCS_SIZE": "LARGE",
        "COUNTRY_CODE": "ESA",
        "LAUNCH_DATE": "2012-10-12",
        "SITE": "FRGUI",
        "DECAY_DATE": null,
        "FILE": "4716995",
        "GP_ID": "286677216",
        "TLE_LINE0": "0 GALILEO-FM3",
        "TLE_LINE1": "1 38857U 12055A   25122.27847359  .00000038  00000-0  00000-0 0  9992",
        "TLE_LINE2": "2 38857  55.5657 112.8316 0005989 286.5062  73.4107  1.70473479 78007"
    }
]